{"type":"FeatureCollection","meta":{"source":"dissolved union of constituencies-uk-2024-bgc.geojson","generator":"scripts/build_globe_constituency_layer.py","tolerance":0.05,"precision":2,"minPartArea":0.01},"features":[{"type":"Feature","properties":{"name":"United Kingdom"},"geometry":{"type":"MultiPolygon","coordinates":[[[[-6.41,57.24],[-6.5,57.26],[-6.51,57.29],[-6.49,57.32],[-6.39,57.33],[-6.4,57.34],[-6.52,57.38],[-6.56,57.31],[-6.59,57.3],[-6.8,57.39],[-6.82,57.43],[-6.73,57.54],[-6.63,57.5],[-6.66,57.6],[-6.64,57.64],[-6.39,57.53],[-6.46,57.65],[-6.32,57.73],[-6.11,57.6],[-6.17,57.41],[-6.07,57.36],[-6.07,57.32],[-5.76,57.3],[-5.64,57.36],[-5.82,57.33],[-5.85,57.35],[-5.87,57.59],[-5.85,57.61],[-5.82,57.61],[-5.85,57.63],[-5.84,57.66],[-5.76,57.7],[-5.84,57.74],[-5.84,57.87],[-5.82,57.89],[-5.68,57.9],[-5.64,57.86],[-5.65,57.93],[-5.62,57.95],[-5.36,57.91],[-5.39,57.94],[-5.36,57.97],[-5.25,57.93],[-5.24,57.95],[-5.47,58.05],[-5.49,58.09],[-5.46,58.11],[-5.31,58.1],[-5.28,58.14],[-5.4,58.25],[-5.4,58.27],[-5.39,58.29],[-5.08,58.26],[-5.2,58.33],[-5.21,58.36],[-5.16,58.43],[-5.12,58.46],[-5.15,58.48],[-5.15,58.51],[-5.02,58.65],[-4.78,58.63],[-4.64,58.58],[-4.59,58.61],[-4.43,58.59],[-4.41,58.56],[-4.42,58.53],[-4.36,58.57],[-4.27,58.54],[-4.25,58.57],[-4.02,58.63],[-3.9,58.57],[-3.66,58.65],[-3.4,58.63],[-3.41,58.68],[-3.38,58.7],[-3.01,58.67],[-3.0,58.63],[-3.1,58.53],[-3.03,58.5],[-3.02,58.48],[-3.09,58.35],[-4.03,57.94],[-3.98,57.86],[-3.77,57.9],[-3.74,57.87],[-3.75,57.85],[-3.99,57.63],[-3.29,57.76],[-2.53,57.68],[-2.0,57.73],[-1.8,57.63],[-1.75,57.46],[-1.97,57.29],[-2.06,57.16],[-2.03,57.15],[-2.02,57.11],[-2.21,56.85],[-2.41,56.7],[-2.52,56.54],[-2.8,56.46],[-2.79,56.43],[-2.82,56.4],[-2.59,56.29],[-2.57,56.27],[-2.58,56.24],[-3.0,56.17],[-3.34,56.0],[-3.06,55.97],[-2.67,56.09],[-2.12,55.94],[-1.96,55.78],[-1.62,55.6],[-1.54,55.35],[-1.56,55.31],[-1.47,55.19],[-1.48,55.17],[-1.52,55.13],[-1.38,55.03],[-1.32,54.93],[-1.14,54.68],[-0.76,54.59],[-0.51,54.47],[-0.25,54.2],[-0.05,54.13],[-0.05,54.1],[-0.17,54.01],[0.15,53.67],[0.14,53.56],[0.1,53.54],[0.08,53.56],[0.08,53.61],[-0.14,53.66],[0.25,53.43],[0.38,53.11],[0.36,53.08],[0.11,52.92],[0.22,52.85],[0.33,52.82],[0.53,53.0],[1.3,52.96],[1.72,52.75],[1.79,52.48],[1.7,52.29],[1.6,52.07],[1.49,52.02],[1.33,51.91],[1.29,51.91],[1.24,51.88],[1.29,51.85],[1.28,51.81],[1.05,51.74],[1.02,51.75],[1.01,51.77],[0.96,51.76],[0.96,51.62],[0.94,51.6],[0.89,51.6],[0.85,51.58],[0.88,51.56],[0.86,51.52],[0.57,51.53],[0.56,51.49],[0.73,51.49],[0.75,51.47],[0.76,51.37],[0.89,51.35],[1.44,51.42],[1.46,51.4],[1.45,51.32],[1.44,51.3],[1.41,51.29],[1.43,51.16],[1.03,51.01],[1.0,50.9],[0.99,50.88],[0.76,50.94],[0.68,50.85],[0.24,50.7],[0.14,50.73],[0.12,50.77],[0.06,50.75],[-0.24,50.8],[-0.53,50.77],[-0.79,50.69],[-0.94,50.76],[-0.95,50.79],[-0.92,50.81],[-1.13,50.82],[-1.11,50.77],[-1.14,50.74],[-1.05,50.71],[-1.04,50.67],[-1.27,50.55],[-1.6,50.64],[-1.62,50.66],[-1.61,50.68],[-1.72,50.7],[-1.92,50.66],[-1.93,50.58],[-1.96,50.56],[-2.41,50.61],[-2.39,50.56],[-2.43,50.49],[-2.46,50.48],[-2.8,50.69],[-3.05,50.7],[-3.35,50.58],[-3.4,50.6],[-3.48,50.56],[-3.45,50.46],[-3.48,50.43],[-3.46,50.42],[-3.45,50.39],[-3.5,50.32],[-3.54,50.32],[-3.64,50.19],[-3.79,50.2],[-3.83,50.19],[-3.91,50.27],[-3.96,50.27],[-3.97,50.31],[-4.13,50.29],[-4.15,50.32],[-4.14,50.35],[-4.16,50.34],[-4.16,50.3],[-4.19,50.29],[-4.46,50.35],[-4.63,50.3],[-4.74,50.3],[-4.78,50.19],[-5.0,50.11],[-5.03,50.12],[-5.1,50.1],[-5.04,50.08],[-5.03,50.04],[-5.18,49.93],[-5.49,50.1],[-5.73,50.04],[-5.75,50.08],[-5.69,50.19],[-5.44,50.21],[-5.15,50.39],[-5.14,50.44],[-5.07,50.46],[-5.05,50.57],[-4.95,50.56],[-4.97,50.58],[-4.95,50.61],[-4.81,50.63],[-4.59,50.8],[-4.55,51.04],[-4.52,51.05],[-4.35,51.02],[-4.25,51.08],[-4.26,51.19],[-4.24,51.22],[-3.03,51.25],[-3.07,51.33],[-3.05,51.36],[-3.01,51.35],[-3.0,51.41],[-2.71,51.55],[-2.98,51.51],[-3.0,51.52],[-3.01,51.55],[-3.12,51.49],[-3.15,51.38],[-3.35,51.35],[-3.73,51.45],[-3.87,51.59],[-3.98,51.53],[-4.32,51.53],[-4.34,51.57],[-4.28,51.66],[-4.38,51.69],[-4.4,51.72],[-4.66,51.7],[-4.94,51.57],[-5.14,51.66],[-5.15,51.69],[-5.27,51.71],[-5.28,51.75],[-5.17,51.82],[-5.33,51.88],[-5.34,51.9],[-5.33,51.93],[-5.08,52.06],[-4.83,52.05],[-4.74,52.15],[-4.71,52.14],[-4.69,52.16],[-4.22,52.29],[-4.1,52.42],[-4.09,52.52],[-4.16,52.62],[-4.06,52.69],[-4.18,52.79],[-4.18,52.89],[-4.39,52.86],[-4.52,52.75],[-4.77,52.77],[-4.79,52.78],[-4.78,52.82],[-4.37,53.06],[-4.34,53.1],[-4.42,53.13],[-4.46,53.13],[-4.61,53.26],[-4.61,53.3],[-4.57,53.32],[-4.6,53.39],[-4.6,53.42],[-4.28,53.45],[-4.19,53.33],[-4.03,53.34],[-4.01,53.31],[-4.03,53.28],[-3.89,53.32],[-3.9,53.35],[-3.88,53.37],[-3.54,53.32],[-3.52,53.34],[-3.32,53.39],[-3.21,53.34],[-3.23,53.38],[-3.22,53.41],[-3.06,53.47],[-3.13,53.53],[-3.13,53.55],[-2.97,53.73],[-3.06,53.73],[-3.08,53.75],[-3.07,53.94],[-3.05,53.95],[-2.91,53.97],[-2.95,54.02],[-2.95,54.04],[-2.84,54.13],[-2.88,54.16],[-2.96,54.12],[-3.03,54.21],[-3.15,54.05],[-3.19,54.05],[-3.29,54.16],[-3.22,54.24],[-3.31,54.17],[-3.34,54.17],[-3.45,54.28],[-3.44,54.32],[-3.67,54.5],[-3.66,54.53],[-3.42,54.89],[-3.25,54.94],[-3.52,54.94],[-3.58,54.98],[-3.57,54.87],[-3.58,54.85],[-3.79,54.82],[-3.81,54.8],[-4.04,54.74],[-4.07,54.75],[-4.11,54.74],[-4.24,54.8],[-4.25,54.83],[-4.32,54.82],[-4.31,54.79],[-4.35,54.67],[-4.38,54.65],[-4.87,54.84],[-4.92,54.8],[-4.83,54.65],[-4.83,54.62],[-4.86,54.61],[-4.99,54.64],[-5.21,54.96],[-5.21,54.99],[-5.11,55.05],[-5.09,55.05],[-5.02,55.16],[-4.77,55.44],[-4.66,55.48],[-4.71,55.62],[-4.93,55.69],[-4.91,55.94],[-4.97,55.83],[-5.0,55.84],[-5.05,55.89],[-4.98,55.73],[-5.0,55.7],[-5.02,55.7],[-5.17,55.82],[-5.2,55.8],[-5.32,55.82],[-5.29,55.79],[-5.29,55.76],[-5.42,55.69],[-5.43,55.62],[-5.31,55.74],[-5.28,55.75],[-5.06,55.58],[-5.05,55.55],[-5.09,55.42],[-5.33,55.44],[-5.43,55.61],[-5.43,55.56],[-5.56,55.43],[-5.5,55.38],[-5.5,55.34],[-5.79,55.27],[-5.82,55.28],[-5.83,55.31],[-5.71,55.69],[-5.64,55.75],[-5.69,55.84],[-5.66,55.89],[-5.71,55.89],[-5.74,55.96],[-5.62,56.1],[-5.64,56.12],[-5.64,56.14],[-5.56,56.22],[-5.61,56.22],[-5.63,56.24],[-5.6,56.35],[-5.57,56.37],[-5.49,56.46],[-5.5,56.5],[-5.44,56.52],[-5.44,56.56],[-5.35,56.66],[-5.65,56.48],[-5.62,56.46],[-5.62,56.43],[-5.82,56.28],[-6.39,56.28],[-6.41,56.31],[-6.39,56.33],[-6.22,56.37],[-6.08,56.47],[-6.36,56.51],[-6.37,56.54],[-6.35,56.62],[-6.32,56.64],[-6.26,56.62],[-6.24,56.66],[-6.15,56.68],[-6.25,56.69],[-6.26,56.72],[-6.24,56.74],[-5.89,56.79],[-5.89,56.83],[-5.83,56.86],[-5.93,56.86],[-5.95,56.9],[-5.87,56.93],[-5.85,57.03],[-5.82,57.04],[-5.82,57.07],[-5.76,57.13],[-6.02,56.99],[-6.05,57.02],[-6.03,57.14],[-5.94,57.18],[-6.02,57.19],[-6.06,57.11],[-6.09,57.1],[-6.14,57.16],[-6.33,57.13],[-6.35,57.15],[-6.34,57.18],[-6.41,57.2],[-6.41,57.24]],[[-6.14,56.68],[-5.94,56.55],[-5.79,56.51],[-6.03,56.62],[-6.03,56.66],[-5.99,56.68],[-6.14,56.68]],[[-5.15,55.92],[-5.17,55.93],[-5.17,55.92],[-5.15,55.92]],[[-4.92,51.77],[-4.91,51.77],[-4.91,51.77],[-4.92,51.77]],[[-1.36,50.78],[-1.35,50.79],[-1.37,50.79],[-1.36,50.78]],[[-1.28,50.8],[-1.28,50.8],[-1.28,50.8],[-1.28,50.8]],[[0.83,51.74],[0.76,51.73],[0.78,51.72],[0.83,51.74]],[[-3.58,56.02],[-3.74,56.06],[-3.69,56.03],[-3.58,56.02]],[[-4.23,57.5],[-4.25,57.5],[-4.24,57.5],[-4.23,57.5]],[[-5.63,57.26],[-5.63,57.24],[-5.6,57.26],[-5.63,57.26]],[[-5.72,57.15],[-5.72,57.15],[-5.71,57.15],[-5.72,57.15]],[[-5.03,50.17],[-5.02,50.18],[-5.04,50.18],[-5.03,50.17]],[[-2.68,51.57],[-2.67,51.58],[-2.68,51.6],[-2.68,51.57]],[[-4.34,54.83],[-4.39,54.86],[-4.4,54.86],[-4.34,54.83]],[[-4.9,55.97],[-4.88,55.97],[-4.89,55.99],[-4.9,55.97]],[[-4.79,55.96],[-4.73,55.95],[-4.75,55.97],[-4.79,55.96]],[[-5.34,55.84],[-5.37,56.0],[-5.4,56.0],[-5.39,55.88],[-5.34,55.84]],[[-5.3,56.69],[-5.28,56.69],[-5.28,56.7],[-5.3,56.69]]],[[[-1.57,60.2],[-1.67,60.2],[-1.72,60.29],[-1.71,60.33],[-1.38,60.31],[-1.33,60.34],[-1.47,60.39],[-1.48,60.46],[-1.65,60.46],[-1.65,60.5],[-1.55,60.58],[-1.5,60.58],[-1.43,60.64],[-1.29,60.65],[-1.27,60.62],[-1.31,60.5],[-1.27,60.52],[-1.18,60.48],[-1.23,60.61],[-1.18,60.68],[-1.15,60.69],[-1.15,60.75],[-1.11,60.75],[-1.01,60.69],[-0.88,60.86],[-0.73,60.83],[-0.74,60.8],[-0.83,60.74],[-0.8,60.69],[-0.81,60.66],[-0.96,60.65],[-0.96,60.62],[-1.0,60.6],[-0.98,60.57],[-0.98,60.55],[-1.14,60.45],[-1.14,60.43],[-1.05,60.48],[-1.02,60.45],[-1.08,60.39],[-1.05,60.36],[-1.06,60.33],[-1.06,60.29],[-1.18,60.22],[-1.11,60.17],[-1.1,60.14],[-1.18,60.09],[-1.14,60.05],[-1.15,60.02],[-1.25,59.97],[-1.24,59.85],[-1.26,59.83],[-1.29,59.83],[-1.42,59.9],[-1.34,60.14],[-1.36,60.16],[-1.47,60.12],[-1.56,60.16],[-1.57,60.2]]],[[[-2.99,59.09],[-2.97,59.06],[-3.0,59.03],[-2.79,59.02],[-2.77,59.01],[-2.77,58.98],[-2.71,59.0],[-2.68,58.98],[-2.69,58.9],[-2.84,58.87],[-2.83,58.84],[-2.95,58.7],[-2.98,58.71],[-3.07,58.82],[-3.05,58.84],[-2.95,58.9],[-2.98,58.93],[-3.2,58.88],[-3.26,58.95],[-3.36,58.93],[-3.38,58.96],[-3.36,59.14],[-3.34,59.16],[-2.99,59.09]]],[[[-3.32,58.94],[-3.15,58.84],[-3.14,58.82],[-3.1,58.8],[-3.11,58.77],[-3.12,58.76],[-3.3,58.75],[-3.46,58.86],[-3.45,58.9],[-3.32,58.94]]],[[[-7.03,54.38],[-7.15,54.32],[-7.12,54.21],[-7.26,54.1],[-7.55,54.09],[-7.87,54.19],[-7.89,54.21],[-7.89,54.28],[-8.19,54.44],[-8.21,54.47],[-8.19,54.49],[-7.79,54.61],[-7.94,54.67],[-7.95,54.7],[-7.93,54.72],[-7.55,54.77],[-7.36,55.08],[-7.08,55.08],[-6.97,55.22],[-6.75,55.2],[-6.48,55.28],[-6.05,55.22],[-6.03,55.2],[-6.03,55.08],[-5.66,54.82],[-5.67,54.78],[-5.8,54.69],[-5.57,54.7],[-5.4,54.49],[-5.59,54.22],[-5.8,54.25],[-5.88,54.08],[-6.06,53.99],[-6.29,54.08],[-6.63,54.01],[-6.65,54.03],[-6.66,54.15],[-6.83,54.2],[-7.03,54.38]]],[[[-6.37,55.72],[-6.52,55.66],[-6.55,55.68],[-6.55,55.71],[-6.47,55.88],[-6.32,55.92],[-6.3,55.91],[-6.29,55.87],[-6.12,55.95],[-6.1,55.94],[-6.09,55.91],[-6.07,55.96],[-6.04,55.97],[-5.97,56.06],[-5.69,56.14],[-5.66,56.12],[-5.67,56.09],[-5.94,55.77],[-6.03,55.78],[-5.99,55.68],[-6.06,55.62],[-6.35,55.56],[-6.37,55.6],[-6.3,55.66],[-6.37,55.72]]],[[[-7.09,58.03],[-7.13,58.18],[-7.12,58.21],[-6.96,58.27],[-6.9,58.21],[-6.79,58.22],[-6.85,58.27],[-6.84,58.31],[-6.27,58.55],[-6.24,58.53],[-6.13,58.35],[-6.14,58.32],[-6.23,58.27],[-6.13,58.28],[-6.11,58.26],[-6.12,58.23],[-6.39,58.14],[-6.37,58.12],[-6.36,57.99],[-6.38,57.97],[-6.43,57.97],[-6.45,57.91],[-6.64,57.89],[-6.65,57.86],[-6.72,57.85],[-6.71,57.82],[-6.73,57.8],[-6.85,57.8],[-6.96,57.7],[-7.15,57.81],[-7.13,57.84],[-6.92,57.9],[-7.13,57.97],[-7.14,58.01],[-7.09,58.03]]],[[[-6.24,57.03],[-6.21,57.02],[-6.21,56.99],[-6.3,56.91],[-6.47,56.98],[-6.49,57.01],[-6.46,57.04],[-6.24,57.03]]],[[[-6.73,56.57],[-6.7,56.56],[-6.71,56.52],[-6.9,56.41],[-7.03,56.5],[-7.01,56.53],[-6.73,56.57]]],[[[-7.44,57.55],[-7.56,57.58],[-7.58,57.61],[-7.32,57.72],[-7.25,57.69],[-7.17,57.77],[-7.14,57.74],[-7.15,57.68],[-7.06,57.67],[-7.04,57.65],[-7.04,57.62],[-7.08,57.61],[-7.08,57.57],[-7.18,57.55],[-7.12,57.53],[-7.13,57.49],[-7.25,57.47],[-7.18,57.44],[-7.18,57.39],[-7.35,57.39],[-7.16,57.31],[-7.18,57.27],[-7.3,57.24],[-7.22,57.18],[-7.22,57.15],[-7.24,57.13],[-7.2,57.11],[-7.22,57.07],[-7.41,57.09],[-7.49,57.23],[-7.48,57.26],[-7.43,57.31],[-7.46,57.4],[-7.42,57.42],[-7.38,57.48],[-7.44,57.55]]]]}}]}